[{"OBJECT_NAME":"IRIDIUM 177","OBJECT_ID":"2023-068T","EPOCH":"2026-03-09T21:08:04.695360","MEAN_MOTION":14.80207725,"ECCENTRICITY":0.00023207,"INCLINATION":86.2006,"RA_OF_ASC_NODE":15.9326,"ARG_OF_PERICENTER":75.4952,"MEAN_ANOMALY":284.6526,"EPHEMERIS_TYPE":0,"CLASSIFICATION_TYPE":"U","NORAD_CAT_ID":56727,"ELEMENT_SET_NO":999,"REV_AT_EPOCH":15167,"BSTAR":0.00019232012,"MEAN_MOTION_DOT":1.487e-5,"MEAN_MOTION_DDOT":0},{"OBJECT_NAME":"MISRSAT-2","OBJECT_ID":"2023-187B","EPOCH":"2026-03-09T22:47:39.416064","MEAN_MOTION":14.82973082,"ECCENTRICITY":0.00124357,"INCLINATION":97.9302,"RA_OF_ASC_NODE":151.6612,"ARG_OF_PERICENTER":109.0533,"MEAN_ANOMALY":251.2029,"EPHEMERIS_TYPE":0,"CLASSIFICATION_TYPE":"U","NORAD_CAT_ID":58497,"ELEMENT_SET_NO":999,"REV_AT_EPOCH":12233,"BSTAR":0.00025174418,"MEAN_MOTION_DOT":1.993e-5,"MEAN_MOTION_DDOT":0}]
